HIMAWARI-8              
1 40267U 14060A   24103.76349578 -.00000285  00000+0  00000+0 0  9993
2 40267   0.0340 147.3505 0000779 252.9299 216.6633  1.00272007 34782
